start=new Date('2021-09-08T00:00:00.000Z').valueOf();
sats=[{"ARG_OF_PERICENTER":"95.1025","MEAN_ANOMALY":"265.0176","INCLINATION":"53.0556","LAUNCH_DATE":"2020-10-18","TIME_SYSTEM":"UTC","REF_FRAME":"TEME","APOAPSIS":"548.495","CENTER_NAME":"EARTH","PERIAPSIS":"545.926","GP_ID":"184284175","MEAN_MOTION_DOT":"-0.00001074","CLASSIFICATION_TYPE":"U","BSTAR":"-0.00005318700000","SEMIMAJOR_AXIS":"6925.346","NORAD_CAT_ID":"46715","ECCENTRICITY":"0.00018550","EPHEMERIS_TYPE":"0","FILE":"3110443","ELEMENT_SET_NO":"999","MEAN_ELEMENT_THEORY":"SGP4","COUNTRY_CODE":"US","REV_AT_EPOCH":"4933","MEAN_MOTION_DDOT":"0.0000000000000","PERIOD":"95.592","DECAY_DATE":null,"OBJECT_ID":"2020-073AX","EPOCH":"2021-09-07T15:37:41.056032","SITE":"AFETR","OBJECT_TYPE":"PAYLOAD","RCS_SIZE":"LARGE","OBJECT_NAME":"STARLINK-1817","TLE_LINE1":"1 46715U 20073AX  21250.65116963 -.00001074  00000-0 -53187-4 0  9994","TLE_LINE2":"2 46715  53.0556  61.9989 0001855  95.1025 265.0176 15.06400951 49339","MEAN_MOTION":"15.06400951","RA_OF_ASC_NODE":"61.9989"},{"MEAN_MOTION_DOT":"0.00001188","CLASSIFICATION_TYPE":"U","GP_ID":"184283926","PERIAPSIS":"545.771","CENTER_NAME":"EARTH","APOAPSIS":"548.635","ECCENTRICITY":"0.00020680","NORAD_CAT_ID":"46716","SEMIMAJOR_AXIS":"6925.338","BSTAR":"0.00009866600000","INCLINATION":"53.0543","MEAN_ANOMALY":"265.7824","ARG_OF_PERICENTER":"94.3401","REF_FRAME":"TEME","TIME_SYSTEM":"UTC","LAUNCH_DATE":"2020-10-18","TLE_LINE1":"1 46716U 20073AY  21250.79905943  .00001188  00000-0  98666-4 0  9999","OBJECT_NAME":"STARLINK-1818","RA_OF_ASC_NODE":"76.3396","TLE_LINE2":"2 46716  53.0543  76.3396 0002068  94.3401 265.7824 15.06403349 49144","MEAN_MOTION":"15.06403349","ELEMENT_SET_NO":"999","FILE":"3110443","EPHEMERIS_TYPE":"0","RCS_SIZE":"LARGE","EPOCH":"2021-09-07T19:10:38.734752","SITE":"AFETR","OBJECT_TYPE":"PAYLOAD","OBJECT_ID":"2020-073AY","DECAY_DATE":null,"MEAN_MOTION_DDOT":"0.0000000000000","PERIOD":"95.592","REV_AT_EPOCH":"4914","COUNTRY_CODE":"US","MEAN_ELEMENT_THEORY":"SGP4"},{"ELEMENT_SET_NO":"999","FILE":"3110443","EPHEMERIS_TYPE":"0","RCS_SIZE":"LARGE","SITE":"AFETR","EPOCH":"2021-09-07T20:50:50.125344","OBJECT_TYPE":"PAYLOAD","OBJECT_ID":"2020-073AZ","DECAY_DATE":null,"PERIOD":"95.592","MEAN_MOTION_DDOT":"0.0000000000000","COUNTRY_CODE":"US","MEAN_ELEMENT_THEORY":"SGP4","REV_AT_EPOCH":"4936","TLE_LINE1":"1 46717U 20073AZ  21250.86863571 -.00000021  00000-0  17472-4 0  9990","OBJECT_NAME":"STARLINK-1820","RA_OF_ASC_NODE":"61.0095","MEAN_MOTION":"15.06395526","TLE_LINE2":"2 46717  53.0552  61.0095 0001612  88.8667 271.2507 15.06395526 49369","INCLINATION":"53.0552","MEAN_ANOMALY":"271.2507","ARG_OF_PERICENTER":"88.8667","REF_FRAME":"TEME","TIME_SYSTEM":"UTC","LAUNCH_DATE":"2020-10-18","CLASSIFICATION_TYPE":"U","MEAN_MOTION_DOT":"-0.00000021","GP_ID":"184282674","PERIAPSIS":"546.111","CENTER_NAME":"EARTH","APOAPSIS":"548.344","ECCENTRICITY":"0.00016120","NORAD_CAT_ID":"46717","SEMIMAJOR_AXIS":"6925.362","BSTAR":"0.00001747200000"},{"ARG_OF_PERICENTER":"96.7086","MEAN_ANOMALY":"263.4076","INCLINATION":"53.0554","LAUNCH_DATE":"2020-10-18","TIME_SYSTEM":"UTC","REF_FRAME":"TEME","APOAPSIS":"548.298","CENTER_NAME":"EARTH","PERIAPSIS":"546.196","GP_ID":"184283424","CLASSIFICATION_TYPE":"U","MEAN_MOTION_DOT":"0.00000793","BSTAR":"0.00007211800000","SEMIMAJOR_AXIS":"6925.382","NORAD_CAT_ID":"46718","ECCENTRICITY":"0.00015180","EPHEMERIS_TYPE":"0","FILE":"3110443","ELEMENT_SET_NO":"999","REV_AT_EPOCH":"4915","COUNTRY_CODE":"US","MEAN_ELEMENT_THEORY":"SGP4","MEAN_MOTION_DDOT":"0.0000000000000","PERIOD":"95.593","OBJECT_ID":"2020-073BA","DECAY_DATE":null,"OBJECT_TYPE":"PAYLOAD","SITE":"AFETR","EPOCH":"2021-09-07T20:14:21.049152","RCS_SIZE":"LARGE","OBJECT_NAME":"STARLINK-1821","TLE_LINE1":"1 46718U 20073BA  21250.84329918  .00000793  00000-0  72118-4 0  9994","TLE_LINE2":"2 46718  53.0554  76.1399 0001518  96.7086 263.4076 15.06389115 49152","MEAN_MOTION":"15.06389115","RA_OF_ASC_NODE":"76.1399"},{"RCS_SIZE":"LARGE","DECAY_DATE":null,"OBJECT_ID":"2020-073BB","OBJECT_TYPE":"PAYLOAD","SITE":"AFETR","EPOCH":"2021-09-07T16:38:43.986624","MEAN_MOTION_DDOT":"0.0000000000000","PERIOD":"95.592","COUNTRY_CODE":"US","MEAN_ELEMENT_THEORY":"SGP4","REV_AT_EPOCH":"4962","ELEMENT_SET_NO":"999","EPHEMERIS_TYPE":"0","FILE":"3110443","RA_OF_ASC_NODE":"41.7941","TLE_LINE2":"2 46719  53.0564  41.7941 0006254  69.5674 290.5986 15.06408425 49627","MEAN_MOTION":"15.06408425","TLE_LINE1":"1 46719U 20073BB  21250.69356466  .00000401  00000-0  45942-4 0  9997","OBJECT_NAME":"STARLINK-1822","REF_FRAME":"TEME","TIME_SYSTEM":"UTC","LAUNCH_DATE":"2020-10-18","MEAN_ANOMALY":"290.5986","INCLINATION":"53.0564","ARG_OF_PERICENTER":"69.5674","ECCENTRICITY":"0.00062540","NORAD_CAT_ID":"46719","SEMIMAJOR_AXIS":"6925.323","BSTAR":"0.00004594200000","MEAN_MOTION_DOT":"0.00000401","CLASSIFICATION_TYPE":"U","GP_ID":"184283676","PERIAPSIS":"542.857","CENTER_NAME":"EARTH","APOAPSIS":"551.519"},{"BSTAR":"0.01789200000000","SEMIMAJOR_AXIS":"6905.474","NORAD_CAT_ID":"46720","ECCENTRICITY":"0.00023760","CENTER_NAME":"EARTH","APOAPSIS":"528.980","PERIAPSIS":"525.698","GP_ID":"184284426","MEAN_MOTION_DOT":"0.00333690","CLASSIFICATION_TYPE":"U","LAUNCH_DATE":"2020-10-18","TIME_SYSTEM":"UTC","REF_FRAME":"TEME","ARG_OF_PERICENTER":"129.4680","INCLINATION":"53.0554","MEAN_ANOMALY":"230.6522","TLE_LINE2":"2 46720  53.0554  40.7048 0002376 129.4680 230.6522 15.12907934 49659","MEAN_MOTION":"15.12907934","RA_OF_ASC_NODE":"40.7048","OBJECT_NAME":"STARLINK-1823","TLE_LINE1":"1 46720U 20073BC  21250.91073028  .00333690  00000-0  17892-1 0  9993","COUNTRY_CODE":"US","MEAN_ELEMENT_THEORY":"SGP4","REV_AT_EPOCH":"4965","PERIOD":"95.181","MEAN_MOTION_DDOT":"0.0000000000000","OBJECT_TYPE":"PAYLOAD","SITE":"AFETR","EPOCH":"2021-09-07T21:51:27.096192","DECAY_DATE":null,"OBJECT_ID":"2020-073BC","RCS_SIZE":"LARGE","FILE":"3110443","EPHEMERIS_TYPE":"0","ELEMENT_SET_NO":"999"},{"ARG_OF_PERICENTER":"76.5127","MEAN_ANOMALY":"283.6021","INCLINATION":"53.0002","LAUNCH_DATE":"2020-10-18","TIME_SYSTEM":"UTC","REF_FRAME":"TEME","CENTER_NAME":"EARTH","APOAPSIS":"257.843","PERIAPSIS":"256.455","GP_ID":"184260293","CLASSIFICATION_TYPE":"U","MEAN_MOTION_DOT":"0.00020935","BSTAR":"0.00003210500000","SEMIMAJOR_AXIS":"6635.284","NORAD_CAT_ID":"46721","ECCENTRICITY":"0.00010460","EPHEMERIS_TYPE":"0","FILE":"3110362","ELEMENT_SET_NO":"999","COUNTRY_CODE":"US","MEAN_ELEMENT_THEORY":"SGP4","REV_AT_EPOCH":"5203","MEAN_MOTION_DDOT":"0.0000117100000","PERIOD":"89.650","DECAY_DATE":null,"OBJECT_ID":"2020-073BD","SITE":"AFETR","OBJECT_TYPE":"PAYLOAD","EPOCH":"2021-09-07T11:08:05.283456","RCS_SIZE":"LARGE","OBJECT_NAME":"STARLINK-1824","TLE_LINE1":"1 46721U 20073BD  21250.46395004  .00020935  11710-4  32105-4 0  9991","TLE_LINE2":"2 46721  53.0002 259.6746 0001046  76.5127 283.6021 16.06251184 52036","MEAN_MOTION":"16.06251184","RA_OF_ASC_NODE":"259.6746"},{"APOAPSIS":"548.358","CENTER_NAME":"EARTH","PERIAPSIS":"546.103","GP_ID":"184282925","MEAN_MOTION_DOT":"-0.00001096","CLASSIFICATION_TYPE":"U","BSTAR":"-0.00005468300000","SEMIMAJOR_AXIS":"6925.365","NORAD_CAT_ID":"46722","ECCENTRICITY":"0.00016280","ARG_OF_PERICENTER":"102.3900","MEAN_ANOMALY":"257.7271","INCLINATION":"53.0551","LAUNCH_DATE":"2020-10-18","TIME_SYSTEM":"UTC","REF_FRAME":"TEME","OBJECT_NAME":"STARLINK-1825","TLE_LINE1":"1 46722U 20073BE  21250.93544324 -.00001096  00000-0 -54683-4 0  9995","MEAN_MOTION":"15.06394534","TLE_LINE2":"2 46722  53.0551  75.7098 0001628 102.3900 257.7271 15.06394534 49161","RA_OF_ASC_NODE":"75.7098","EPHEMERIS_TYPE":"0","FILE":"3110443","ELEMENT_SET_NO":"999","REV_AT_EPOCH":"4916","COUNTRY_CODE":"US","MEAN_ELEMENT_THEORY":"SGP4","PERIOD":"95.592","MEAN_MOTION_DDOT":"0.0000000000000","DECAY_DATE":null,"OBJECT_ID":"2020-073BE","SITE":"AFETR","EPOCH":"2021-09-07T22:27:02.295936","OBJECT_TYPE":"PAYLOAD","RCS_SIZE":"LARGE"},{"EPHEMERIS_TYPE":"0","FILE":"3110443","ELEMENT_SET_NO":"999","MEAN_MOTION_DDOT":"0.0000000000000","PERIOD":"95.592","MEAN_ELEMENT_THEORY":"SGP4","COUNTRY_CODE":"US","REV_AT_EPOCH":"4969","RCS_SIZE":"LARGE","DECAY_DATE":null,"OBJECT_ID":"2020-073BF","SITE":"AFETR","OBJECT_TYPE":"PAYLOAD","EPOCH":"2021-09-07T16:42:01.284480","OBJECT_NAME":"STARLINK-1826","TLE_LINE1":"1 46723U 20073BF  21250.69584820 -.00000336  00000-0 -36340-5 0  9991","TLE_LINE2":"2 46723  53.0567  36.7891 0001842  99.4771 260.6426 15.06405292 49694","MEAN_MOTION":"15.06405292","RA_OF_ASC_NODE":"36.7891","MEAN_ANOMALY":"260.6426","INCLINATION":"53.0567","ARG_OF_PERICENTER":"99.4771","TIME_SYSTEM":"UTC","LAUNCH_DATE":"2020-10-18","REF_FRAME":"TEME","PERIAPSIS":"545.922","APOAPSIS":"548.473","CENTER_NAME":"EARTH","MEAN_MOTION_DOT":"-0.00000336","CLASSIFICATION_TYPE":"U","GP_ID":"184284176","SEMIMAJOR_AXIS":"6925.332","BSTAR":"-0.00000363400000","ECCENTRICITY":"0.00018420","NORAD_CAT_ID":"46723"},{"REV_AT_EPOCH":"4983","COUNTRY_CODE":"US","MEAN_ELEMENT_THEORY":"SGP4","PERIOD":"93.047","MEAN_MOTION_DDOT":"0.0000000000000","EPOCH":"2021-09-07T21:59:45.695040","SITE":"AFETR","OBJECT_TYPE":"PAYLOAD","OBJECT_ID":"2020-073BG","DECAY_DATE":null,"RCS_SIZE":"LARGE","FILE":"3110443","EPHEMERIS_TYPE":"0","ELEMENT_SET_NO":"999","TLE_LINE2":"2 46724  53.0517  28.1492 0007558 274.7258  85.2886 15.47611040 49832","MEAN_MOTION":"15.47611040","RA_OF_ASC_NODE":"28.1492","OBJECT_NAME":"STARLINK-1827","TLE_LINE1":"1 46724U 20073BG  21250.91650110  .00181747  00000-0  33929-2 0  9994","LAUNCH_DATE":"2020-10-18","TIME_SYSTEM":"UTC","REF_FRAME":"TEME","ARG_OF_PERICENTER":"274.7258","INCLINATION":"53.0517","MEAN_ANOMALY":"85.2886","BSTAR":"0.00339290000000","SEMIMAJOR_AXIS":"6801.854","NORAD_CAT_ID":"46724","ECCENTRICITY":"0.00075580","APOAPSIS":"428.860","CENTER_NAME":"EARTH","PERIAPSIS":"418.578","GP_ID":"184283927","MEAN_MOTION_DOT":"0.00181747","CLASSIFICATION_TYPE":"U"}];
